{
    "links": {
        "self": "http://www.neowsapp.com/rest/v1/neo/3719731?api_key=iIulBulltgU6a56xZRHN4H3l9WmuAYTsLGpBGhQ2"
    },
    "id": "3719731",
    "neo_reference_id": "3719731",
    "name": "(2015 KC57)",
    "designation": "2015 KC57",
    "nasa_jpl_url": "http://ssd.jpl.nasa.gov/sbdb.cgi?sstr=3719731",
    "absolute_magnitude_h": 26.8,
    "estimated_diameter": {
        "kilometers": {
            "estimated_diameter_min": 0.0116025908,
            "estimated_diameter_max": 0.0259441818
        },
        "meters": {
            "estimated_diameter_min": 11.6025908209,
            "estimated_diameter_max": 25.9441817907
        },
        "miles": {
            "estimated_diameter_min": 0.0072095135,
            "estimated_diameter_max": 0.0161209622
        },
        "feet": {
            "estimated_diameter_min": 38.066244069,
            "estimated_diameter_max": 85.1187093863
        }
    },
    "is_potentially_hazardous_asteroid": false,
    "close_approach_data": [
        {
            "close_approach_date": "2015-06-20",
            "close_approach_date_full": "2015-Jun-20 04:23",
            "epoch_date_close_approach": 1434774180000,
            "relative_velocity": {
                "kilometers_per_second": "7.4046809574",
                "kilometers_per_hour": "26656.8514464739",
                "miles_per_hour": "16563.5308335048"
            },
            "miss_distance": {
                "astronomical": "0.0679247126",
                "lunar": "26.4227132014",
                "kilometers": "10161392.325322162",
                "miles": "6313996.4070513556"
            },
            "orbiting_body": "Earth"
        }
    ],
    "orbital_data": {
        "orbit_id": "3",
        "orbit_determination_date": "2017-04-06 08:33:35",
        "first_observation_date": "2015-05-20",
        "last_observation_date": "2015-05-23",
        "data_arc_in_days": 3,
        "observations_used": 13,
        "orbit_uncertainty": "9",
        "minimum_orbit_intersection": ".0593489",
        "jupiter_tisserand_invariant": "3.497",
        "epoch_osculation": "2457164.5",
        "eccentricity": ".5151393400707144",
        "semi_major_axis": "2.176560359385092",
        "inclination": "3.582679121634513",
        "ascending_node_longitude": "57.10905102090923",
        "orbital_period": "1172.88248219516",
        "perihelion_distance": "1.055328492227379",
        "perihelion_argument": "227.9903368815465",
        "aphelion_distance": "3.297792226542805",
        "perihelion_time": "2457207.443658071887",
        "mean_anomaly": "346.8190401505997",
        "mean_motion": ".3069361214486093",
        "equinox": "J2000",
        "orbit_class": {
            "orbit_class_type": "AMO",
            "orbit_class_description": "Near-Earth asteroid orbits similar to that of 1221 Amor",
            "orbit_class_range": "1.017 AU < q (perihelion) < 1.3 AU"
        }
    },
    "is_sentry_object": false
}